     2.10           N: GPS NAV DATA                         RINEX VERSION / TYPE
teqc  2000Jul20     ESA/ESOC            20020524 01:12:15UTCPGM / RUN BY / DATE
Solaris 2.7|Ultra 2|cc SC5.0|=+-|*Sparc                     COMMENT
teqc  2000Feb29                         20020524 05:07:27UTCCOMMENT
MSWinNT 4.0|PentPro|wcl386 10.6|MSDOS 5.x+|386/7+           COMMENT
                                                            END OF HEADER
15 02  5 24  8  0  0.0 1.765694469213D-05 4.433786671143D-12 0.000000000000D+00
    1.300000000000D+02-5.090625000000D+01 4.370539193357D-09-3.602871295537D-01
   -2.693384885788D-06 8.482647943310D-03 2.484768629074D-06 5.153612703323D+03
    4.608000000000D+05-1.918524503708D-07 1.559647445668D+00-2.421438694000D-08
    9.763742071848D-01 3.417812500000D+02 1.865513118589D+00-8.404992958836D-09
   -2.667968274445D-10 0.000000000000D+00 1.167000000000D+03 0.000000000000D+00
    2.800000000000D+00 0.000000000000D+00-2.328306436539D-09 1.300000000000D+02
    4.536000000000D+05
17 02  5 24  8  0  0.0-6.835209205747D-05 1.167563823401D-10 0.000000000000D+00
    1.480000000000D+02-6.496875000000D+01 4.259463138023D-09-1.512173618135D+00
   -3.457069396973D-06 1.403373701032D-02 2.399086952209D-06 5.153660964966D+03
    4.608000000000D+05-5.215406417847D-08 1.600246318945D+00-2.402812242508D-07
    9.783194990940D-01 3.429687500000D+02-3.054262342743D+00-8.203198839016D-09
   -1.607209803882D-10 0.000000000000D+00 1.167000000000D+03 0.000000000000D+00
    2.000000000000D+00 0.000000000000D+00-2.328306436539D-09 9.160000000000D+02
    4.536000000000D+05
22 02  5 24  7 59 44.0 2.697072923183D-04 4.206412995700D-11 0.000000000000D+00
    1.530000000000D+02-1.518750000000D+01 5.191287666540D-09 1.818424345724D+00
   -7.785856723785D-07 1.516669208650D-02 1.213327050209D-05 5.153740339279D+03
    4.607840000000D+05-4.041939973831D-07-6.778244778588D-01-6.519258022308D-08
    9.320179356138D-01 1.360000000000D+02 7.844663533381D-01-8.253915237272D-09
   -4.564475843026D-10 0.000000000000D+00 1.167000000000D+03 0.000000000000D+00
    2.000000000000D+00 0.000000000000D+00-4.190951585770D-09 4.090000000000D+02
    4.536000000000D+05
23 02  5 24  8  0  0.0 2.759043127298D-06 6.821210263297D-13 0.000000000000D+00
    1.160000000000D+02-1.066250000000D+02 3.461215602094D-09-3.015941189028D+00
   -5.355104804039D-06 1.589970744681D-02 1.143291592598D-05 5.153504379272D+03
    4.608000000000D+05 1.341104507446D-07 2.588119534756D+00-4.470348358154D-08
    9.835896585487D-01 1.678437500000D+02-1.745182646959D+00-7.272802941435D-09
   -3.250135381184D-11 0.000000000000D+00 1.167000000000D+03 0.000000000000D+00
    2.000000000000D+00 0.000000000000D+00-2.793967723846D-09 8.840000000000D+02
    4.536000000000D+05
25 02  5 24  8  0  0.0 2.700788900256D-05 5.684341886081D-13 0.000000000000D+00
    6.600000000000D+01-2.025000000000D+01 5.722381217290D-09-4.495773058994D-01
   -1.065433025360D-06 9.859892074019D-03 4.718080163002D-06 5.153665952682D+03
    4.608000000000D+05-1.192092895508D-07-1.725262370891D+00 4.470348358154D-08
    9.386805911973D-01 2.828437500000D+02-1.838889235472D+00-8.851797284316D-09
   -2.607251459631D-11 0.000000000000D+00 1.167000000000D+03 0.000000000000D+00
    2.000000000000D+00 0.000000000000D+00-7.450580596924D-09 6.600000000000D+01
    4.536000000000D+05
30 02  5 24  8  0  0.0 6.678993813694D-04 8.753886504564D-12 0.000000000000D+00
    1.090000000000D+02-1.334375000000D+01 4.876631702713D-09 2.873442342933D+00
   -6.929039955139D-07 6.170102860779D-03 1.198798418045D-05 5.153779012680D+03
    4.608000000000D+05 4.097819328308D-08-6.331798783006D-01-9.685754776001D-08
    9.427915738648D-01 1.359375000000D+02 1.326292398682D+00-7.988547040764D-09
   -4.568047420368D-10 0.000000000000D+00 1.167000000000D+03 0.000000000000D+00
    2.800000000000D+00 0.000000000000D+00-8.381903171539D-09 3.650000000000D+02
    4.536000000000D+05
18 02  5 24  7 59 44.0-6.584962829947D-05 1.591615728103D-12 0.000000000000D+00
    8.700000000000D+01-8.984375000000D+01 3.945878647398D-09-2.291175262932D+00
   -4.565343260765D-06 2.711731824093D-03 1.134723424911D-05 5.153700502396D+03
    4.607840000000D+05-3.725290298462D-09 2.583058465793D+00 3.352761268616D-08
    9.634817061832D-01 1.640625000000D+02 2.952687127499D+00-7.781752712664D-09
    1.321483616526D-11 0.000000000000D+00 1.167000000000D+03 0.000000000000D+00
    2.000000000000D+00 0.000000000000D+00-1.024454832077D-08 8.700000000000D+01
    4.547700000000D+05
21 02  5 24  8  0  0.0-1.188833266497D-06-1.136868377216D-13 0.000000000000D+00
    1.620000000000D+02-9.915625000000D+01 3.526218309718D-09 2.510620779490D+00
   -5.185604095459D-06 1.817539171316D-02 1.100637018681D-05 5.153640142441D+03
    4.608000000000D+05-3.911554813385D-08 2.545040678863D+00-3.147870302200D-07
    9.801695155375D-01 1.768437500000D+02-2.341192952861D+00-7.428880871279D-09
   -6.678849629467D-11 0.000000000000D+00 1.167000000000D+03 0.000000000000D+00
    4.000000000000D+00 0.000000000000D+00-1.862645149231D-09 1.620000000000D+02
    4.563900000000D+05
15 02  5 24  7 59 44.0 1.765321940184D-05 4.320099833421D-12 0.000000000000D+00
    1.520000000000D+02-5.090625000000D+01 4.370539193357D-09-3.626218765881D-01
   -2.693384885788D-06 8.482654462568D-03 2.484768629074D-06 5.153612651825D+03
    4.607840000000D+05-1.918524503708D-07 1.559647629996D+00-2.421438694000D-08
    9.763742188882D-01 3.417812500000D+02 1.865514246499D+00-8.404992958836D-09
   -2.667968274445D-10 0.000000000000D+00 1.167000000000D+03 0.000000000000D+00
    2.000000000000D+00 0.000000000000D+00-2.328306436539D-09 1.520000000000D+02
    4.571100000000D+05
 2 02  5 24  8  0  0.0-2.041761763394D-04-6.025402399246D-12 0.000000000000D+00
    1.380000000000D+02 3.625000000000D+00 5.162357890070D-09-2.075780205195D+00
    1.918524503708D-07 2.219699835405D-02 1.098401844501D-05 5.153539194107D+03
    4.608000000000D+05 3.296881914139D-07-6.914145611060D-01 7.636845111847D-08
    9.325103099517D-01 1.463750000000D+02-1.944306195014D+00-7.891400137062D-09
   -2.689397738497D-10 0.000000000000D+00 1.167000000000D+03 0.000000000000D+00
    4.000000000000D+00 0.000000000000D+00-1.862645149231D-09 6.500000000000D+02
    4.571400000000D+05
 3 02  5 24  8  0  0.0 3.041746094823D-05 3.524291969370D-12 0.000000000000D+00
    1.360000000000D+02 1.285312500000D+02 5.262362055645D-09 8.538826266559D-01
    6.891787052155D-06 3.217006102204D-03 7.027760148048D-06 5.153709356308D+03
    4.608000000000D+05 3.166496753693D-08 3.850987380510D-01 7.078051567078D-08
    9.336541129328D-01 2.267187500000D+02 5.356749809903D-01-8.564999623756D-09
    1.525063525017D-10 0.000000000000D+00 1.167000000000D+03 0.000000000000D+00
    2.000000000000D+00 0.000000000000D+00-4.190951585770D-09 1.360000000000D+02
    4.571400000000D+05
 6 02  5 24  8  0  0.0-3.480352461338D-06-3.410605131648D-13 0.000000000000D+00
    9.000000000000D+01 1.271250000000D+02 4.976278710554D-09-1.006907383380D+00
    6.539747118950D-06 6.550959544256D-03 7.104128599167D-06 5.153768032074D+03
    4.608000000000D+05 1.490116119385D-08 4.327306441226D-01 1.490116119385D-07
    9.411889134618D-01 2.305937500000D+02-2.212218240204D+00-8.418564952736D-09
    1.860791795162D-10 0.000000000000D+00 1.167000000000D+03 0.000000000000D+00
    2.800000000000D+00 0.000000000000D+00-5.122274160385D-09 9.000000000000D+01
    4.571400000000D+05
15 02  5 24  7 59 44.0 1.765321940184D-05 4.320099833421D-12 0.000000000000D+00
    1.520000000000D+02-5.090625000000D+01 4.370539193357D-09-3.626218765881D-01
   -2.693384885788D-06 8.482654462568D-03 2.484768629074D-06 5.153612651825D+03
    4.607840000000D+05-1.918524503708D-07 1.559647629996D+00-2.421438694000D-08
    9.763742188882D-01 3.417812500000D+02 1.865514246499D+00-8.404992958836D-09
   -2.667968274445D-10 0.000000000000D+00 1.167000000000D+03 0.000000000000D+00
    2.000000000000D+00 0.000000000000D+00-2.328306436539D-09 1.520000000000D+02
    4.571400000000D+05
17 02  5 24  8  0  0.0-6.835209205747D-05 1.167563823401D-10 0.000000000000D+00
    1.480000000000D+02-6.496875000000D+01 4.259463138023D-09-1.512173618135D+00
   -3.457069396973D-06 1.403373701032D-02 2.399086952209D-06 5.153660964966D+03
    4.608000000000D+05-5.215406417847D-08 1.600246318945D+00-2.402812242508D-07
    9.783194990940D-01 3.429687500000D+02-3.054262342743D+00-8.203198839016D-09
   -1.607209803882D-10 0.000000000000D+00 1.167000000000D+03 0.000000000000D+00
    2.000000000000D+00 0.000000000000D+00-2.328306436539D-09 9.160000000000D+02
    4.571400000000D+05
18 02  5 24  7 59 44.0-6.584962829947D-05 1.591615728103D-12 0.000000000000D+00
    8.700000000000D+01-8.984375000000D+01 3.945878647398D-09-2.291175262932D+00
   -4.565343260765D-06 2.711731824093D-03 1.134723424911D-05 5.153700502396D+03
    4.607840000000D+05-3.725290298462D-09 2.583058465793D+00 3.352761268616D-08
    9.634817061832D-01 1.640625000000D+02 2.952687127499D+00-7.781752712664D-09
    1.321483616526D-11 0.000000000000D+00 1.167000000000D+03 0.000000000000D+00
    2.000000000000D+00 0.000000000000D+00-1.024454832077D-08 8.700000000000D+01
    4.571400000000D+05
21 02  5 24  8  0  0.0-1.188833266497D-06-1.136868377216D-13 0.000000000000D+00
    1.620000000000D+02-9.915625000000D+01 3.526218309718D-09 2.510620779490D+00
   -5.185604095459D-06 1.817539171316D-02 1.100637018681D-05 5.153640142441D+03
    4.608000000000D+05-3.911554813385D-08 2.545040678863D+00-3.147870302200D-07
    9.801695155375D-01 1.768437500000D+02-2.341192952861D+00-7.428880871279D-09
   -6.678849629467D-11 0.000000000000D+00 1.167000000000D+03 0.000000000000D+00
    4.000000000000D+00 0.000000000000D+00-1.862645149231D-09 1.620000000000D+02
    4.571400000000D+05
